[
    {
        "Altitude(m)": 604221.2262803438,
        "Argument of Periapsis(deg)": 0.0,
        "Eccentricity": 0.0,
        "Inclination(deg)": 60.0,
        "Latitude(deg)": 14.117371045234686,
        "Longitude(deg)": 128.33416276783257,
        "Mean Anomaly(deg)": 16.363599999999984,
        "RAAN(deg)": 220.00000000000003,
        "Satellite Name": "Test1 969",
        "Satellite Number": 969,
        "Semi-Major Axis(m)": 6980739.136638005,
        "Time(s)": 0
    },
    {
        "Altitude(m)": 604235.3679190541,
        "Argument of Periapsis(deg)": 0.00010418945913296404,
        "Eccentricity": 0.0,
        "Inclination(deg)": 60.0,
        "Latitude(deg)": 14.651767619028877,
        "Longitude(deg)": 128.62261022924648,
        "Mean Anomaly(deg)": 16.983706145461838,
        "RAAN(deg)": 219.99957995086027,
        "Satellite Name": "Test1 969",
        "Satellite Number": 969,
        "Semi-Major Axis(m)": 6980739.136638005,
        "Time(s)": 10
    },
    {
        "Altitude(m)": 604252.4066450859,
        "Argument of Periapsis(deg)": 0.0002083789182659281,
        "Eccentricity": 0.0,
        "Inclination(deg)": 60.0,
        "Latitude(deg)": 15.185674376195628,
        "Longitude(deg)": 128.91266070475714,
        "Mean Anomaly(deg)": 17.603812290923667,
        "RAAN(deg)": 219.9991599017205,
        "Satellite Name": "Test1 969",
        "Satellite Number": 969,
        "Semi-Major Axis(m)": 6980739.136638005,
        "Time(s)": 20
    },
    {
        "Altitude(m)": 604272.3106293479,
        "Argument of Periapsis(deg)": 0.00031256837739889213,
        "Eccentricity": 0.0,
        "Inclination(deg)": 60.0,
        "Latitude(deg)": 15.719070012059966,
        "Longitude(deg)": 129.204381706722,
        "Mean Anomaly(deg)": 18.223918436385468,
        "RAAN(deg)": 219.99873985258077,
        "Satellite Name": "Test1 969",
        "Satellite Number": 969,
        "Semi-Major Axis(m)": 6980739.136638005,
        "Time(s)": 30
    },
    {
        "Altitude(m)": 604295.0467680052,
        "Argument of Periapsis(deg)": 0.0004167578365318562,
        "Eccentricity": 0.0,
        "Inclination(deg)": 60.0,
        "Latitude(deg)": 16.251932886226648,
        "Longitude(deg)": 129.49784227012182,
        "Mean Anomaly(deg)": 18.844024581847297,
        "RAAN(deg)": 219.99831980344106,
        "Satellite Name": "Test1 969",
        "Satellite Number": 969,
        "Semi-Major Axis(m)": 6980739.136638005,
        "Time(s)": 40
    },
    {
        "Altitude(m)": 604320.5807014374,
        "Argument of Periapsis(deg)": 0.0005209472956648203,
        "Eccentricity": 0.0,
        "Inclination(deg)": 60.0,
        "Latitude(deg)": 16.78424100654453,
        "Longitude(deg)": 129.79311198814122,
        "Mean Anomaly(deg)": 19.46413072730915,
        "RAAN(deg)": 219.9978997543013,
        "Satellite Name": "Test1 969",
        "Satellite Number": 969,
        "Semi-Major Axis(m)": 6980739.136638005,
        "Time(s)": 50
    },
    {
        "Altitude(m)": 604348.8768337553,
        "Argument of Periapsis(deg)": 0.0006251367547977843,
        "Eccentricity": 0.0,
        "Inclination(deg)": 60.0,
        "Latitude(deg)": 17.31597201258647,
        "Longitude(deg)": 130.0902615614773,
        "Mean Anomaly(deg)": 20.084236872770976,
        "RAAN(deg)": 219.99747970516154,
        "Satellite Name": "Test1 969",
        "Satellite Number": 969,
        "Semi-Major Axis(m)": 6980739.136638005,
        "Time(s)": 60
    },
    {
        "Altitude(m)": 604379.8983529101,
        "Argument of Periapsis(deg)": 0.0007293262139307483,
        "Eccentricity": 0.0,
        "Inclination(deg)": 60.0,
        "Latitude(deg)": 17.847103158623035,
        "Longitude(deg)": 130.38936334852752,
        "Mean Anomaly(deg)": 20.70434301823283,
        "RAAN(deg)": 219.9970596560218,
        "Satellite Name": "Test1 969",
        "Satellite Number": 969,
        "Semi-Major Axis(m)": 6980739.136638005,
        "Time(s)": 70
    },
    {
        "Altitude(m)": 604413.6072513638,
        "Argument of Periapsis(deg)": 0.0008335156730637124,
        "Eccentricity": 0.0,
        "Inclination(deg)": 60.0,
        "Latitude(deg)": 18.377611296067066,
        "Longitude(deg)": 130.69049040360736,
        "Mean Anomaly(deg)": 21.32444916369466,
        "RAAN(deg)": 219.9966396068821,
        "Satellite Name": "Test1 969",
        "Satellite Number": 969,
        "Semi-Major Axis(m)": 6980739.136638005,
        "Time(s)": 80
    },
    {
        "Altitude(m)": 604449.9643473503,
        "Argument of Periapsis(deg)": 0.0009377051321966765,
        "Eccentricity": 0.0,
        "Inclination(deg)": 60.0,
        "Latitude(deg)": 18.907472855361917,
        "Longitude(deg)": 130.99371702896767,
        "Mean Anomaly(deg)": 21.94455530915646,
        "RAAN(deg)": 219.9962195577423,
        "Satellite Name": "Test1 969",
        "Satellite Number": 969,
        "Semi-Major Axis(m)": 6980739.136638005,
        "Time(s)": 90
    },
    {
        "Altitude(m)": 604488.9293066597,
        "Argument of Periapsis(deg)": 0.0010418945913296407,
        "Eccentricity": 0.0,
        "Inclination(deg)": 60.0,
        "Latitude(deg)": 19.436663827289003,
        "Longitude(deg)": 131.29911932776145,
        "Mean Anomaly(deg)": 22.56466145461829,
        "RAAN(deg)": 219.9957995086026,
        "Satellite Name": "Test1 969",
        "Satellite Number": 969,
        "Semi-Major Axis(m)": 6980739.136638005,
        "Time(s)": 100
    },
    {
        "Altitude(m)": 604530.4606649858,
        "Argument of Periapsis(deg)": 0.0011460840504626045,
        "Eccentricity": 0.0,
        "Inclination(deg)": 60.0,
        "Latitude(deg)": 19.965159743670007,
        "Longitude(deg)": 131.60677424510305,
        "Mean Anomaly(deg)": 23.18476760008014,
        "RAAN(deg)": 219.99537945946284,
        "Satellite Name": "Test1 969",
        "Satellite Number": 969,
        "Semi-Major Axis(m)": 6980739.136638005,
        "Time(s)": 110
    },
    {
        "Altitude(m)": 604574.5158507723,
        "Argument of Periapsis(deg)": 0.0012502735095955685,
        "Eccentricity": 0.0,
        "Inclination(deg)": 60.0,
        "Latitude(deg)": 20.49293565743356,
        "Longitude(deg)": 131.9167601229882,
        "Mean Anomaly(deg)": 23.80487374554197,
        "RAAN(deg)": 219.99495941032308,
        "Satellite Name": "Test1 969",
        "Satellite Number": 969,
        "Semi-Major Axis(m)": 6980739.136638005,
        "Time(s)": 120
    },
    {
        "Altitude(m)": 604621.0512086152,
        "Argument of Periapsis(deg)": 0.0013544629687285324,
        "Eccentricity": 0.0,
        "Inclination(deg)": 60.0,
        "Latitude(deg)": 21.01996612202043,
        "Longitude(deg)": 132.22915725621579,
        "Mean Anomaly(deg)": 24.424979891003822,
        "RAAN(deg)": 219.99453936118334,
        "Satellite Name": "Test1 969",
        "Satellite Number": 969,
        "Semi-Major Axis(m)": 6980739.136638005,
        "Time(s)": 130
    },
    {
        "Altitude(m)": 604670.0220231168,
        "Argument of Periapsis(deg)": 0.0014586524278614966,
        "Eccentricity": 0.0,
        "Inclination(deg)": 60.0,
        "Latitude(deg)": 21.546225170099397,
        "Longitude(deg)": 132.5440469364504,
        "Mean Anomaly(deg)": 25.045086036465648,
        "RAAN(deg)": 219.99411931204364,
        "Satellite Name": "Test1 969",
        "Satellite Number": 969,
        "Semi-Major Axis(m)": 6980739.136638005,
        "Time(s)": 140
    },
    {
        "Altitude(m)": 604721.3825432599,
        "Argument of Periapsis(deg)": 0.0015628418869944607,
        "Eccentricity": 0.0,
        "Inclination(deg)": 60.0,
        "Latitude(deg)": 22.07168629156183,
        "Longitude(deg)": 132.8615120101849,
        "Mean Anomaly(deg)": 25.66519218192745,
        "RAAN(deg)": 219.99369926290387,
        "Satellite Name": "Test1 969",
        "Satellite Number": 969,
        "Semi-Major Axis(m)": 6980739.136638005,
        "Time(s)": 150
    },
    {
        "Altitude(m)": 604775.086007269,
        "Argument of Periapsis(deg)": 0.0016670313461274247,
        "Eccentricity": 0.0,
        "Inclination(deg)": 60.0,
        "Latitude(deg)": 22.596322410765598,
        "Longitude(deg)": 133.1816374377366,
        "Mean Anomaly(deg)": 26.285298327389278,
        "RAAN(deg)": 219.9932792137641,
        "Satellite Name": "Test1 969",
        "Satellite Number": 969,
        "Semi-Major Axis(m)": 6980739.136638005,
        "Time(s)": 160
    },
    {
        "Altitude(m)": 604831.0846678936,
        "Argument of Periapsis(deg)": 0.0017712208052603888,
        "Eccentricity": 0.0,
        "Inclination(deg)": 60.0,
        "Latitude(deg)": 23.12010586299891,
        "Longitude(deg)": 133.50450934040566,
        "Mean Anomaly(deg)": 26.90540447285113,
        "RAAN(deg)": 219.99285916462438,
        "Satellite Name": "Test1 969",
        "Satellite Number": 969,
        "Semi-Major Axis(m)": 6980739.136638005,
        "Time(s)": 170
    },
    {
        "Altitude(m)": 604889.3298181699,
        "Argument of Periapsis(deg)": 0.001875410264393353,
        "Eccentricity": 0.0,
        "Inclination(deg)": 60.0,
        "Latitude(deg)": 23.643008370128666,
        "Longitude(deg)": 133.83021556154523,
        "Mean Anomaly(deg)": 27.525510618312957,
        "RAAN(deg)": 219.99243911548467,
        "Satellite Name": "Test1 969",
        "Satellite Number": 969,
        "Semi-Major Axis(m)": 6980739.136638005,
        "Time(s)": 180
    },
    {
        "Altitude(m)": 604949.7718176064,
        "Argument of Periapsis(deg)": 0.0019795997235263173,
        "Eccentricity": 0.0,
        "Inclination(deg)": 60.0,
        "Latitude(deg)": 24.165001015401977,
        "Longitude(deg)": 134.15884622866417,
        "Mean Anomaly(deg)": 28.145616763774758,
        "RAAN(deg)": 219.9920190663449,
        "Satellite Name": "Test1 969",
        "Satellite Number": 969,
        "Semi-Major Axis(m)": 6980739.136638005,
        "Time(s)": 190
    }
]